{
  "type": "FeatureCollection",
  "features": [
    {
      "type": "Feature",
      "properties": {
        "norad_id": 36744,
        "name": "COMS 1",
        "group": "weather",
        "lat": 3.3056444491007526,
        "lon": 127.45384649760048,
        "alt_km": 35789.73153120121,
        "timestamp": "2025-12-07T18:50:16.367869+00:00",
        "meta_object_name": "COMS 1",
        "meta_object_id": "2010-032A",
        "meta_epoch": "2025-12-06T22:02:51.700416",
        "meta_mean_motion": 1.00271522,
        "meta_eccentricity": 0.00011767,
        "meta_inclination": 4.3268,
        "meta_ra_of_asc_node": 78.0608,
        "meta_arg_of_pericenter": 190.6588,
        "meta_mean_anomaly": 266.12,
        "meta_ephemeris_type": 0,
        "meta_classification_type": "U",
        "meta_norad_cat_id": 36744,
        "meta_element_set_no": 999,
        "meta_rev_at_epoch": 4916,
        "meta_bstar": 0,
        "meta_mean_motion_dot": -3.4e-06,
        "meta_mean_motion_ddot": 0,
        "tle_line1": "1 36744U 10032A   25340.91865394 -.00000340  00000+0  00000+0 0  9995",
        "tle_line2": "2 36744   4.3268  78.0608 0001176 190.6588 266.1200  1.00271522 49167"
      },
      "geometry": {
        "type": "Point",
        "coordinates": [
          127.45384649760048,
          3.3056444491007526
        ]
      }
    },
    {
      "type": "Feature",
      "properties": {
        "norad_id": 37214,
        "name": "FENGYUN 3B",
        "group": "weather",
        "lat": 12.418220130715019,
        "lon": 19.729506916457495,
        "alt_km": 828.1129097127814,
        "timestamp": "2025-12-07T18:50:16.367881+00:00",
        "meta_object_name": "FENGYUN 3B",
        "meta_object_id": "2010-059A",
        "meta_epoch": "2025-12-07T07:12:06.054912",
        "meta_mean_motion": 14.14787568,
        "meta_eccentricity": 0.00222523,
        "meta_inclination": 98.9916,
        "meta_ra_of_asc_node": 21.2393,
        "meta_arg_of_pericenter": 13.1759,
        "meta_mean_anomaly": 51.4682,
        "meta_ephemeris_type": 0,
        "meta_classification_type": "U",
        "meta_norad_cat_id": 37214,
        "meta_element_set_no": 999,
        "meta_rev_at_epoch": 78029,
        "meta_bstar": 0.0001293105,
        "meta_mean_motion_dot": 2.04e-06,
        "meta_mean_motion_ddot": 0,
        "tle_line1": "1 37214U 10059A   25341.30007008  .00000204  00000+0  12931-3 0  9999",
        "tle_line2": "2 37214  98.9916  21.2393 0022252  13.1759  51.4682 14.14787568780293"
      },
      "geometry": {
        "type": "Point",
        "coordinates": [
          19.729506916457495,
          12.418220130715019
        ]
      }
    },
    {
      "type": "Feature",
      "properties": {
        "norad_id": 37849,
        "name": "SUOMI NPP",
        "group": "weather",
        "lat": 49.71451855462884,
        "lon": 109.672507301446,
        "alt_km": 820.9471048927153,
        "timestamp": "2025-12-07T18:50:16.367892+00:00",
        "meta_object_name": "SUOMI NPP",
        "meta_object_id": "2011-061A",
        "meta_epoch": "2025-12-07T06:23:19.358592",
        "meta_mean_motion": 14.19511806,
        "meta_eccentricity": 0.0002062,
        "meta_inclination": 98.7765,
        "meta_ra_of_asc_node": 278.6573,
        "meta_arg_of_pericenter": 129.6996,
        "meta_mean_anomaly": 230.4362,
        "meta_ephemeris_type": 0,
        "meta_classification_type": "U",
        "meta_norad_cat_id": 37849,
        "meta_element_set_no": 999,
        "meta_rev_at_epoch": 73121,
        "meta_bstar": 0.00011652476,
        "meta_mean_motion_dot": 2.01e-06,
        "meta_mean_motion_ddot": 0,
        "tle_line1": "1 37849U 11061A   25341.26619628  .00000201  00000+0  11652-3 0  9995",
        "tle_line2": "2 37849  98.7765 278.6573 0002062 129.6996 230.4362 14.19511806731215"
      },
      "geometry": {
        "type": "Point",
        "coordinates": [
          109.672507301446,
          49.71451855462884
        ]
      }
    },
    {
      "type": "Feature",
      "properties": {
        "norad_id": 38552,
        "name": "METEOSAT-10 (MSG-3)",
        "group": "weather",
        "lat": -3.725821783291264,
        "lon": -0.4276783994661746,
        "alt_km": 35784.65846681408,
        "timestamp": "2025-12-07T18:50:16.367906+00:00",
        "meta_object_name": "METEOSAT-10 (MSG-3)",
        "meta_object_id": "2012-035B",
        "meta_epoch": "2025-12-07T01:39:02.807136",
        "meta_mean_motion": 1.0027323,
        "meta_eccentricity": 8.883e-05,
        "meta_inclination": 4.2152,
        "meta_ra_of_asc_node": 61.7326,
        "meta_arg_of_pericenter": 231.2003,
        "meta_mean_anomaly": 168.0514,
        "meta_ephemeris_type": 0,
        "meta_classification_type": "U",
        "meta_norad_cat_id": 38552,
        "meta_element_set_no": 999,
        "meta_rev_at_epoch": 4893,
        "meta_bstar": 0,
        "meta_mean_motion_dot": -3e-08,
        "meta_mean_motion_ddot": 0,
        "tle_line1": "1 38552U 12035B   25341.06878249 -.00000003  00000+0  00000+0 0  9995",
        "tle_line2": "2 38552   4.2152  61.7326 0000888 231.2003 168.0514  1.00273230 48936"
      },
      "geometry": {
        "type": "Point",
        "coordinates": [
          -0.4276783994661746,
          -3.725821783291264
        ]
      }
    },
    {
      "type": "Feature",
      "properties": {
        "norad_id": 38771,
        "name": "METOP-B",
        "group": "weather",
        "lat": -51.285242042095064,
        "lon": 42.81470270341017,
        "alt_km": 829.2247970295793,
        "timestamp": "2025-12-07T18:50:16.367923+00:00",
        "meta_object_name": "METOP-B",
        "meta_object_id": "2012-049A",
        "meta_epoch": "2025-12-07T07:15:24.575328",
        "meta_mean_motion": 14.21405376,
        "meta_eccentricity": 0.00026843,
        "meta_inclination": 98.6806,
        "meta_ra_of_asc_node": 31.3531,
        "meta_arg_of_pericenter": 156.1748,
        "meta_mean_anomaly": 203.9555,
        "meta_ephemeris_type": 0,
        "meta_classification_type": "U",
        "meta_norad_cat_id": 38771,
        "meta_element_set_no": 999,
        "meta_rev_at_epoch": 68600,
        "meta_bstar": 0.00015005458,
        "meta_mean_motion_dot": 2.84e-06,
        "meta_mean_motion_ddot": 0,
        "tle_line1": "1 38771U 12049A   25341.30236777  .00000284  00000+0  15005-3 0  9999",
        "tle_line2": "2 38771  98.6806  31.3531 0002684 156.1748 203.9555 14.21405376686005"
      },
      "geometry": {
        "type": "Point",
        "coordinates": [
          42.81470270341017,
          -51.285242042095064
        ]
      }
    },
    {
      "type": "Feature",
      "properties": {
        "norad_id": 39216,
        "name": "INSAT-3D",
        "group": "weather",
        "lat": 1.0050435639138593,
        "lon": 128.8825629972844,
        "alt_km": 35789.24372063483,
        "timestamp": "2025-12-07T18:50:16.367935+00:00",
        "meta_object_name": "INSAT-3D",
        "meta_object_id": "2013-038B",
        "meta_epoch": "2025-12-07T07:24:05.786784",
        "meta_mean_motion": 1.0027206,
        "meta_eccentricity": 0.00017418,
        "meta_inclination": 1.4303,
        "meta_ra_of_asc_node": 85.0487,
        "meta_arg_of_pericenter": 160.3046,
        "meta_mean_anomaly": 71.547,
        "meta_ephemeris_type": 0,
        "meta_classification_type": "U",
        "meta_norad_cat_id": 39216,
        "meta_element_set_no": 999,
        "meta_rev_at_epoch": 4515,
        "meta_bstar": 0,
        "meta_mean_motion_dot": -3.35e-06,
        "meta_mean_motion_ddot": 0,
        "tle_line1": "1 39216U 13038B   25341.30840031 -.00000335  00000+0  00000+0 0  9990",
        "tle_line2": "2 39216   1.4303  85.0487 0001741 160.3046  71.5470  1.00272060 45156"
      },
      "geometry": {
        "type": "Point",
        "coordinates": [
          128.8825629972844,
          1.0050435639138593
        ]
      }
    },
    {
      "type": "Feature",
      "properties": {
        "norad_id": 39260,
        "name": "FENGYUN 3C",
        "group": "weather",
        "lat": -61.90280349691505,
        "lon": -24.075355280842853,
        "alt_km": 846.3992741754791,
        "timestamp": "2025-12-07T18:50:16.367946+00:00",
        "meta_object_name": "FENGYUN 3C",
        "meta_object_id": "2013-052A",
        "meta_epoch": "2025-12-07T05:33:57.473280",
        "meta_mean_motion": 14.15693743,
        "meta_eccentricity": 0.00139932,
        "meta_inclination": 98.4758,
        "meta_ra_of_asc_node": 319.1804,
        "meta_arg_of_pericenter": 212.4346,
        "meta_mean_anomaly": 147.597,
        "meta_ephemeris_type": 0,
        "meta_classification_type": "U",
        "meta_norad_cat_id": 39260,
        "meta_element_set_no": 999,
        "meta_rev_at_epoch": 63140,
        "meta_bstar": 0.00012471285,
        "meta_mean_motion_dot": 2.04e-06,
        "meta_mean_motion_ddot": 0,
        "tle_line1": "1 39260U 13052A   25341.23191520  .00000204  00000+0  12471-3 0  9992",
        "tle_line2": "2 39260  98.4758 319.1804 0013993 212.4346 147.5970 14.15693743631406"
      },
      "geometry": {
        "type": "Point",
        "coordinates": [
          -24.075355280842853,
          -61.90280349691505
        ]
      }
    }
  ]
}